NORAD_CAT_ID,OBJECT_NAME,OBJECT_TYPE,EPOCH,MEAN_MOTION,ECCENTRICITY,INCLINATION,RA_OF_ASC_NODE,ARG_OF_PERICENTER,MEAN_ANOMALY,BSTAR,MEAN_MOTION_DOT,MEAN_MOTION_DDOT,TLE_LINE0,TLE_LINE1,TLE_LINE2,SEMIMAJOR_AXIS,PERIOD,APOGEE,PERIGEE,DECAYED
53715.0,STARLINK-4686,PAYLOAD,2024-03-08 01:00:28,15.08839495,0.0001446,53.2173,298.3296,107.1412,252.9739,0.00010802,1.432e-05,0.0,0 STARLINK-4686,1 53715U 22107R   24068.04200033  .00001432  00000-0  10802-3 0  9999,2 53715  53.2173 298.3296 0001446 107.1412 252.9739 15.08839495 83509,6917.882,95.438,540.747,538.747,0.0
53715.0,STARLINK-4686,PAYLOAD,2024-03-09 00:51:15,15.08845749,0.0001446,53.217,293.8688,108.3346,251.7803,0.00010927,1.452e-05,0.0,0 STARLINK-4686,1 53715U 22107R   24069.03559485  .00001452  00000-0  10927-3 0  9997,2 53715  53.2170 293.8688 0001446 108.3346 251.7803 15.08845749 84116,6917.863,95.437,540.728,538.727,0.0
53715.0,STARLINK-4686,PAYLOAD,2024-03-10 00:42:03,15.08834763,0.0001147,53.2164,289.4097,101.0844,259.0277,-6.8261e-05,-1.374e-05,0.0,0 STARLINK-4686,1 53715U 22107R   24070.02920786 -.00001374  00000-0 -68261-4 0  9994,2 53715  53.2164 289.4097 0001147 101.0844 259.0277 15.08834763 83800,6917.896,95.438,540.555,538.968,0.0
53715.0,STARLINK-4686,PAYLOAD,2024-03-10 15:00:31,15.08834066,0.0001257,53.2166,286.7336,92.4607,267.6529,2.1518e-06,-2.54e-06,0.0,0 STARLINK-4686,1 53715U 22107R   24070.62536832 -.00000254  00000-0  21518-5 0  9995,2 53715  53.2166 286.7336 0001257  92.4607 267.6529 15.08834066 84352,6917.899,95.438,540.633,538.894,0.0
53715.0,STARLINK-4686,PAYLOAD,2024-03-10 21:22:04,15.0883414,0.0001576,53.218,285.5432,77.5991,282.5177,9.5082e-05,1.225e-05,0.0,0 STARLINK-4686,1 53715U 22107R   24070.89032477  .00001225  00000-0  95082-4 0  9994,2 53715  53.2180 285.5432 0001576  77.5991 282.5177 15.08834140 83937,6917.898,95.438,540.854,538.673,0.0
53715.0,STARLINK-4686,PAYLOAD,2024-03-11 06:54:23,15.08833811,0.0001668,53.2184,283.7579,77.5008,282.6171,8.3217e-05,1.036e-05,0.0,0 STARLINK-4686,1 53715U 22107R   24071.28776741  .00001036  00000-0  83217-4 0  9994,2 53715  53.2184 283.7579 0001668  77.5008 282.6171 15.08833811 84451,6917.899,95.438,540.918,538.61,0.0
53715.0,STARLINK-4686,PAYLOAD,2024-03-12 13:06:43,15.08833369,0.0001297,53.2155,278.1086,80.8924,279.2215,7.5652e-06,-1.67e-06,0.0,0 STARLINK-4686,1 53715U 22107R   24072.54633326 -.00000167  00000-0  75652-5 0  9995,2 53715  53.2155 278.1086 0001297  80.8924 279.2215 15.08833369 84181,6917.901,95.438,540.663,538.868,0.0
53715.0,STARLINK-4686,PAYLOAD,2024-03-13 12:57:30,15.08835732,0.0001282,53.2124,273.6495,86.0706,274.0433,4.1302e-05,3.69e-06,0.0,0 STARLINK-4686,1 53715U 22107R   24073.53993210  .00000369  00000-0  41302-4 0  9993,2 53715  53.2124 273.6495 0001282  86.0706 274.0433 15.08835732 84799,6917.893,95.438,540.645,538.872,0.0
53715.0,STARLINK-4686,PAYLOAD,2024-03-13 19:19:02,15.08837129,0.0001372,53.2118,272.4596,84.2713,275.8435,2.4331e-05,9.9e-07,0.0,0 STARLINK-4686,1 53715U 22107R   24073.80489239  .00000099  00000-0  24331-4 0  9997,2 53715  53.2118 272.4596 0001372  84.2713 275.8435 15.08837129 84376,6917.889,95.438,540.703,538.805,0.0
53715.0,STARLINK-4686,PAYLOAD,2024-03-13 22:29:48,15.08850466,0.0001402,53.2137,271.866,84.613,275.5022,-9.3068e-05,-1.769e-05,0.0,0 STARLINK-4686,1 53715U 22107R   24073.93736904 -.00001769  00000-0 -93068-4 0  9995,2 53715  53.2137 271.8660 0001402  84.6130 275.5022 15.08850466 84854,6917.848,95.437,540.683,538.744,0.0
53715.0,STARLINK-4686,PAYLOAD,2024-03-14 06:26:43,15.08873312,6.99e-05,53.2154,270.3803,350.5479,9.55,-0.00038347,-6.391e-05,0.0,0 STARLINK-4686,1 53715U 22107R   24074.26855963 -.00006391  00000-0 -38347-3 0  9993,2 53715  53.2154 270.3803 0000699 350.5479   9.5500 15.08873312 84901,6917.779,95.435,540.127,539.16,0.0
53715.0,STARLINK-4686,PAYLOAD,2024-03-14 22:20:35,15.08845914,0.0001291,53.2143,267.4046,90.0957,270.0183,0.00010968,1.458e-05,0.0,0 STARLINK-4686,1 53715U 22107R   24074.93096348  .00001458  00000-0  10968-3 0  9997,2 53715  53.2143 267.4046 0001291  90.0957 270.0183 15.08845914 85002,6917.862,95.437,540.62,538.834,0.0
53715.0,STARLINK-4686,PAYLOAD,2024-03-15 22:11:22,15.08840759,0.000146,53.2152,262.9427,108.0578,252.0573,2.5675e-05,1.21e-06,0.0,0 STARLINK-4686,1 53715U 22107R   24075.92456729  .00000121  00000-0  25675-4 0  9998,2 53715  53.2152 262.9427 0001460 108.0578 252.0573 15.08840759 85153,6917.878,95.438,540.753,538.733,0.0
53715.0,STARLINK-4686,PAYLOAD,2024-03-16 22:02:09,15.08843561,0.000141,53.2159,258.4813,101.0477,259.0674,-1.461e-05,-5.2e-06,0.0,0 STARLINK-4686,1 53715U 22107R   24076.91816629 -.00000520  00000-0 -14610-4 0  9999,2 53715  53.2159 258.4813 0001410 101.0477 259.0674 15.08843561 85305,6917.87,95.437,540.71,538.759,0.0
53715.0,STARLINK-4686,PAYLOAD,2024-03-17 18:42:10,15.0883738,0.0001447,53.2166,254.6141,94.8775,265.2383,3.7671e-05,3.12e-06,0.0,0 STARLINK-4686,1 53715U 22107R   24077.77928882  .00000312  00000-0  37671-4 0  9998,2 53715  53.2166 254.6141 0001447  94.8775 265.2383 15.08837380 84975,6917.888,95.438,540.754,538.752,0.0
53715.0,STARLINK-4686,PAYLOAD,2024-03-18 12:11:24,15.08844994,0.0001386,53.2164,251.3424,94.3611,265.754,9.6024e-05,1.241e-05,0.0,0 STARLINK-4686,1 53715U 22107R   24078.50792127  .00001241  00000-0  96024-4 0  9990,2 53715  53.2164 251.3424 0001386  94.3611 265.7540 15.08844994 85089,6917.865,95.437,540.689,538.771,0.0
53715.0,STARLINK-4686,PAYLOAD,2024-03-19 12:02:10,15.0885322,0.0001277,53.2165,246.8866,101.1482,258.9654,8.9827e-05,1.142e-05,0.0,0 STARLINK-4686,1 53715U 22107R   24079.50151320  .00001142  00000-0  89827-4 0  9998,2 53715  53.2165 246.8866 0001277 101.1482 258.9654 15.08853220 85690,6917.84,95.437,540.588,538.822,0.0
53715.0,STARLINK-4686,PAYLOAD,2024-03-20 10:17:36,15.0883264,0.0001297,53.2165,242.7228,83.5263,276.5877,-0.00014977,-2.67e-05,0.0,0 STARLINK-4686,1 53715U 22107R   24080.42889540 -.00002670  00000-0 -14977-3 0  9995,2 53715  53.2165 242.7228 0001297  83.5263 276.5877 15.08832640 85370,6917.903,95.438,540.665,538.871,0.0
53715.0,STARLINK-4686,PAYLOAD,2024-03-20 18:14:32,15.08829362,0.0001396,53.2167,241.2367,79.4882,280.6268,-0.00016959,-2.985e-05,0.0,0 STARLINK-4686,1 53715U 22107R   24080.76009967 -.00002985  00000-0 -16959-3 0  9990,2 53715  53.2167 241.2367 0001396  79.4882 280.6268 15.08829362 85884,6917.913,95.438,540.744,538.812,0.0
53715.0,STARLINK-4686,PAYLOAD,2024-03-21 14:54:32,15.08834907,0.0001269,53.2169,237.3698,83.5478,276.5659,6.1968e-05,6.98e-06,0.0,0 STARLINK-4686,1 53715U 22107R   24081.62121152  .00000698  00000-0  61968-4 0  9995,2 53715  53.2169 237.3698 0001269  83.5478 276.5659 15.08834907 86010,6917.896,95.438,540.639,538.883,0.0
53715.0,STARLINK-4686,PAYLOAD,2024-03-21 18:05:18,15.08845458,0.000132,53.2168,236.7748,83.3862,276.728,0.00013968,1.936e-05,0.0,0 STARLINK-4686,1 53715U 22107R   24081.75368241  .00001936  00000-0  13968-3 0  9993,2 53715  53.2168 236.7748 0001320  83.3862 276.7280 15.08845458 85576,6917.864,95.437,540.642,538.816,0.0
53715.0,STARLINK-4686,PAYLOAD,2024-03-22 09:59:11,15.08828285,0.0001211,53.2172,233.8008,89.0817,271.0314,8.6522e-05,1.089e-05,0.0,0 STARLINK-4686,1 53715U 22107R   24082.41609964  .00001089  00000-0  86522-4 0  9993,2 53715  53.2172 233.8008 0001211  89.0817 271.0314 15.08828285 85676,6917.916,95.438,540.619,538.943,0.0
53715.0,STARLINK-4686,PAYLOAD,2024-03-22 14:45:20,15.08831474,0.0001303,53.2168,232.9115,87.2807,272.8334,0.00013628,1.881e-05,0.0,0 STARLINK-4686,1 53715U 22107R   24082.61481680  .00001881  00000-0  13628-3 0  9994,2 53715  53.2168 232.9115 0001303  87.2807 272.8334 15.08831474 86161,6917.906,95.438,540.673,538.87,0.0
53715.0,STARLINK-4686,PAYLOAD,2024-03-22 19:31:28,15.08841485,0.0001342,53.2168,232.0165,85.4263,274.6882,0.00018584,2.671e-05,0.0,0 STARLINK-4686,1 53715U 22107R   24082.81352997  .00002671  00000-0  18584-3 0  9998,2 53715  53.2168 232.0165 0001342  85.4263 274.6882 15.08841485 85739,6917.876,95.437,540.669,538.812,0.0
53715.0,STARLINK-4686,PAYLOAD,2024-03-23 13:00:44,15.08830903,0.0001671,53.2173,228.7437,124.5424,235.5726,0.00013045,1.788e-05,0.0,0 STARLINK-4686,1 53715U 22107R   24083.54218011  .00001788  00000-0  13045-3 0  9992,2 53715  53.2173 228.7437 0001671 124.5424 235.5726 15.08830903 85846,6917.908,95.438,540.929,538.617,0.0
53715.0,STARLINK-4686,PAYLOAD,2024-03-23 19:22:15,15.08856634,0.0001254,53.2163,227.5559,103.804,256.3092,7.0315e-05,8.32e-06,0.0,0 STARLINK-4686,1 53715U 22107R   24083.80712545  .00000832  00000-0  70315-4 0  9995,2 53715  53.2163 227.5559 0001254 103.8040 256.3092 15.08856634 85888,6917.83,95.437,540.562,538.827,0.0
53715.0,STARLINK-4686,PAYLOAD,2024-03-24 12:51:30,15.08854695,0.0001518,53.2156,224.2829,114.6418,245.4732,6.622e-05,7.66e-06,0.0,0 STARLINK-4686,1 53715U 22107R   24084.53576560  .00000766  00000-0  66220-4 0  9997,2 53715  53.2156 224.2829 0001518 114.6418 245.4732 15.08854695 85993,6917.835,95.437,540.751,538.65,0.0
53715.0,STARLINK-4686,PAYLOAD,2024-03-24 14:26:53,15.08849728,0.0001372,53.2171,223.9932,78.6425,281.4722,0.0001131,1.513e-05,0.0,0 STARLINK-4686,1 53715U 22107R   24084.60200939  .00001513  00000-0  11310-3 0  9999,2 53715  53.2171 223.9932 0001372  78.6425 281.4722 15.08849728 86469,6917.851,95.437,540.665,538.767,0.0
53715.0,STARLINK-4686,PAYLOAD,2024-03-24 16:02:15,15.08860918,0.0001453,53.2177,223.689,101.4325,258.6831,0.00012966,1.777e-05,0.0,0 STARLINK-4686,1 53715U 22107R   24084.66824004  .00001777  00000-0  12966-3 0  9990,2 53715  53.2177 223.6890 0001453 101.4325 258.6831 15.08860918 86471,6917.816,95.436,540.687,538.676,0.0
53715.0,STARLINK-4686,PAYLOAD,2024-03-25 12:42:18,15.08845264,0.0001769,53.2172,219.8275,121.6663,238.4502,-8.4949e-06,-4.23e-06,0.0,0 STARLINK-4686,1 53715U 22107R   24085.52937512 -.00000423  00000-0 -84949-5 0  9996,2 53715  53.2172 219.8275 0001769 121.6663 238.4502 15.08845264 86141,6917.864,95.437,540.953,538.506,0.0
